start=new Date('2022-04-24T00:00:00.000Z').valueOf();
sats=[{"MEAN_ANOMALY":"359.9030","MEAN_MOTION_DOT":"-0.00573400","ARG_OF_PERICENTER":"40.4253","PERIOD":"93.099","RCS_SIZE":"LARGE","EPHEMERIS_TYPE":"0","PERIAPSIS":"425.038","OBJECT_TYPE":"PAYLOAD","FILE":"3412883","ELEMENT_SET_NO":"999","TLE_LINE1":"1 51728U 22016Q   22113.58334491 -.00573400  00000-0 -12122-1 0  9990","REF_FRAME":"TEME","EPOCH":"2022-04-23T14:00:01.000224","MEAN_MOTION":"15.46740697","TIME_SYSTEM":"UTC","INCLINATION":"53.2168","SITE":"AFETR","CENTER_NAME":"EARTH","MEAN_MOTION_DDOT":"0.0000000000000","RA_OF_ASC_NODE":"199.4760","DECAY_DATE":null,"CLASSIFICATION_TYPE":"U","BSTAR":"-0.01212200000000","NORAD_CAT_ID":"51728","LAUNCH_DATE":"2022-02-21","OBJECT_ID":"2022-016Q","SEMIMAJOR_AXIS":"6804.405","REV_AT_EPOCH":"366","OBJECT_NAME":"STARLINK-3448","MEAN_ELEMENT_THEORY":"SGP4","TLE_LINE2":"2 51728  53.2168 199.4760 0001811  40.4253 359.9030 15.46740697  3668","APOAPSIS":"427.502","COUNTRY_CODE":"US","ECCENTRICITY":"0.00018110","GP_ID":"201884283"},{"MEAN_MOTION":"15.46352827","INCLINATION":"53.2166","TIME_SYSTEM":"UTC","REF_FRAME":"TEME","TLE_LINE1":"1 51729U 22016R   22113.58334491 -.00567871  00000-0 -12159-1 0  9996","EPOCH":"2022-04-23T14:00:01.000224","EPHEMERIS_TYPE":"0","PERIAPSIS":"426.137","FILE":"3412883","ELEMENT_SET_NO":"999","OBJECT_TYPE":"PAYLOAD","ARG_OF_PERICENTER":"40.6565","MEAN_MOTION_DOT":"-0.00567871","MEAN_ANOMALY":"333.8035","RCS_SIZE":"LARGE","PERIOD":"93.122","ECCENTRICITY":"0.00018680","GP_ID":"201884200","COUNTRY_CODE":"US","APOAPSIS":"428.679","OBJECT_NAME":"STARLINK-3523","MEAN_ELEMENT_THEORY":"SGP4","TLE_LINE2":"2 51729  53.2166 199.4785 0001868  40.6565 333.8035 15.46352827  3664","OBJECT_ID":"2022-016R","LAUNCH_DATE":"2022-02-21","NORAD_CAT_ID":"51729","REV_AT_EPOCH":"366","SEMIMAJOR_AXIS":"6805.543","CENTER_NAME":"EARTH","SITE":"AFETR","RA_OF_ASC_NODE":"199.4785","DECAY_DATE":null,"CLASSIFICATION_TYPE":"U","BSTAR":"-0.01215900000000","MEAN_MOTION_DDOT":"0.0000000000000"},{"ECCENTRICITY":"0.00015420","GP_ID":"201884365","OBJECT_NAME":"STARLINK-3530","MEAN_ELEMENT_THEORY":"SGP4","TLE_LINE2":"2 51730  53.2170 199.4736 0001542  43.9902  13.3761 15.47022590  3665","COUNTRY_CODE":"US","APOAPSIS":"426.493","NORAD_CAT_ID":"51730","LAUNCH_DATE":"2022-02-21","OBJECT_ID":"2022-016S","SEMIMAJOR_AXIS":"6803.579","REV_AT_EPOCH":"366","SITE":"AFETR","CENTER_NAME":"EARTH","MEAN_MOTION_DDOT":"0.0000000000000","DECAY_DATE":null,"RA_OF_ASC_NODE":"199.4736","BSTAR":"-0.01268000000000","CLASSIFICATION_TYPE":"U","MEAN_MOTION":"15.47022590","TIME_SYSTEM":"UTC","INCLINATION":"53.2170","TLE_LINE1":"1 51730U 22016S   22113.58334491 -.00603334  00000-0 -12680-1 0  9992","REF_FRAME":"TEME","EPOCH":"2022-04-23T14:00:01.000224","EPHEMERIS_TYPE":"0","PERIAPSIS":"424.394","OBJECT_TYPE":"PAYLOAD","ELEMENT_SET_NO":"999","FILE":"3412883","MEAN_MOTION_DOT":"-0.00603334","MEAN_ANOMALY":"13.3761","ARG_OF_PERICENTER":"43.9902","PERIOD":"93.082","RCS_SIZE":"LARGE"},{"REV_AT_EPOCH":"366","SEMIMAJOR_AXIS":"6804.727","OBJECT_ID":"2022-016T","NORAD_CAT_ID":"51731","LAUNCH_DATE":"2022-02-21","RA_OF_ASC_NODE":"199.4769","DECAY_DATE":null,"CLASSIFICATION_TYPE":"U","BSTAR":"-0.01261300000000","MEAN_MOTION_DDOT":"0.0000000000000","CENTER_NAME":"EARTH","SITE":"AFETR","ECCENTRICITY":"0.00016910","GP_ID":"201884118","COUNTRY_CODE":"US","APOAPSIS":"427.743","MEAN_ELEMENT_THEORY":"SGP4","OBJECT_NAME":"STARLINK-3514","TLE_LINE2":"2 51731  53.2167 199.4769 0001691  39.3320 352.3985 15.46630926  3667","ELEMENT_SET_NO":"999","FILE":"3412883","OBJECT_TYPE":"PAYLOAD","EPHEMERIS_TYPE":"0","PERIAPSIS":"425.441","RCS_SIZE":"MEDIUM","PERIOD":"93.106","ARG_OF_PERICENTER":"39.3320","MEAN_ANOMALY":"352.3985","MEAN_MOTION_DOT":"-0.00592847","INCLINATION":"53.2167","TIME_SYSTEM":"UTC","MEAN_MOTION":"15.46630926","EPOCH":"2022-04-23T14:00:01.000224","REF_FRAME":"TEME","TLE_LINE1":"1 51731U 22016T   22113.58334491 -.00592847  00000-0 -12613-1 0  9995"},{"LAUNCH_DATE":"2022-02-21","NORAD_CAT_ID":"51732","OBJECT_ID":"2022-016U","SEMIMAJOR_AXIS":"6803.204","REV_AT_EPOCH":"366","SITE":"AFETR","CENTER_NAME":"EARTH","MEAN_MOTION_DDOT":"0.0000000000000","DECAY_DATE":null,"RA_OF_ASC_NODE":"199.4724","CLASSIFICATION_TYPE":"U","BSTAR":"-0.01265700000000","GP_ID":"201884616","ECCENTRICITY":"0.00017230","OBJECT_NAME":"STARLINK-3518","MEAN_ELEMENT_THEORY":"SGP4","TLE_LINE2":"2 51732  53.2170 199.4724 0001723  45.8711  19.9664 15.47150286  3662","APOAPSIS":"426.241","COUNTRY_CODE":"US","EPHEMERIS_TYPE":"0","PERIAPSIS":"423.897","OBJECT_TYPE":"PAYLOAD","ELEMENT_SET_NO":"999","FILE":"3412883","MEAN_ANOMALY":"19.9664","MEAN_MOTION_DOT":"-0.00604834","ARG_OF_PERICENTER":"45.8711","PERIOD":"93.074","RCS_SIZE":"LARGE","MEAN_MOTION":"15.47150286","TIME_SYSTEM":"UTC","INCLINATION":"53.2170","TLE_LINE1":"1 51732U 22016U   22113.58334491 -.00604834  00000-0 -12657-1 0  9994","REF_FRAME":"TEME","EPOCH":"2022-04-23T14:00:01.000224"},{"OBJECT_TYPE":"PAYLOAD","FILE":"3412883","ELEMENT_SET_NO":"999","EPHEMERIS_TYPE":"0","PERIAPSIS":"424.699","PERIOD":"93.090","RCS_SIZE":"MEDIUM","MEAN_MOTION_DOT":"-0.00601530","MEAN_ANOMALY":"10.7193","ARG_OF_PERICENTER":"38.1399","TIME_SYSTEM":"UTC","INCLINATION":"53.2168","MEAN_MOTION":"15.46892959","EPOCH":"2022-04-23T14:00:01.000224","TLE_LINE1":"1 51733U 22016V   22113.58334491 -.00601530  00000-0 -12696-1 0  9998","REF_FRAME":"TEME","SEMIMAJOR_AXIS":"6803.959","REV_AT_EPOCH":"366","LAUNCH_DATE":"2022-02-21","NORAD_CAT_ID":"51733","OBJECT_ID":"2022-016V","MEAN_MOTION_DDOT":"0.0000000000000","DECAY_DATE":null,"RA_OF_ASC_NODE":"199.4748","BSTAR":"-0.01269600000000","CLASSIFICATION_TYPE":"U","SITE":"AFETR","CENTER_NAME":"EARTH","GP_ID":"201884533","ECCENTRICITY":"0.00016530","OBJECT_NAME":"STARLINK-3525","MEAN_ELEMENT_THEORY":"SGP4","TLE_LINE2":"2 51733  53.2168 199.4748 0001653  38.1399  10.7193 15.46892959  3660","COUNTRY_CODE":"US","APOAPSIS":"426.948"},{"OBJECT_ID":"2022-016W","NORAD_CAT_ID":"51734","LAUNCH_DATE":"2022-02-21","REV_AT_EPOCH":"365","SEMIMAJOR_AXIS":"6809.191","CENTER_NAME":"EARTH","SITE":"AFETR","DECAY_DATE":null,"RA_OF_ASC_NODE":"199.4723","BSTAR":"-0.01211500000000","CLASSIFICATION_TYPE":"U","MEAN_MOTION_DDOT":"0.0000000000000","ECCENTRICITY":"0.00016810","GP_ID":"201884699","APOAPSIS":"432.201","COUNTRY_CODE":"US","MEAN_ELEMENT_THEORY":"SGP4","OBJECT_NAME":"STARLINK-3450","TLE_LINE2":"2 51734  53.2163 199.4723 0001681  40.8955 260.3889 15.45110313  3658","EPHEMERIS_TYPE":"0","PERIAPSIS":"429.911","FILE":"3412883","ELEMENT_SET_NO":"999","OBJECT_TYPE":"PAYLOAD","ARG_OF_PERICENTER":"40.8955","MEAN_MOTION_DOT":"-0.00543741","MEAN_ANOMALY":"260.3889","RCS_SIZE":"LARGE","PERIOD":"93.197","MEAN_MOTION":"15.45110313","INCLINATION":"53.2163","TIME_SYSTEM":"UTC","REF_FRAME":"TEME","TLE_LINE1":"1 51734U 22016W   22113.58334491 -.00543741  00000-0 -12115-1 0  9994","EPOCH":"2022-04-23T14:00:01.000224"},{"DECAY_DATE":null,"RA_OF_ASC_NODE":"199.4709","BSTAR":"-0.01196200000000","CLASSIFICATION_TYPE":"U","MEAN_MOTION_DDOT":"0.0000000000000","CENTER_NAME":"EARTH","SITE":"AFETR","REV_AT_EPOCH":"366","SEMIMAJOR_AXIS":"6802.894","OBJECT_ID":"2022-016X","LAUNCH_DATE":"2022-02-21","NORAD_CAT_ID":"51735","APOAPSIS":"425.975","COUNTRY_CODE":"US","MEAN_ELEMENT_THEORY":"SGP4","OBJECT_NAME":"STARLINK-3517","TLE_LINE2":"2 51735  53.2169 199.4709 0001788  40.6531  33.6278 15.47256086  3669","ECCENTRICITY":"0.00017880","GP_ID":"201884451","RCS_SIZE":"MEDIUM","PERIOD":"93.068","ARG_OF_PERICENTER":"40.6531","MEAN_MOTION_DOT":"-0.00575890","MEAN_ANOMALY":"33.6278","ELEMENT_SET_NO":"999","FILE":"3412883","OBJECT_TYPE":"PAYLOAD","EPHEMERIS_TYPE":"0","PERIAPSIS":"423.543","EPOCH":"2022-04-23T14:00:01.000224","REF_FRAME":"TEME","TLE_LINE1":"1 51735U 22016X   22113.58334491 -.00575890  00000-0 -11962-1 0  9994","INCLINATION":"53.2169","TIME_SYSTEM":"UTC","MEAN_MOTION":"15.47256086"},{"EPOCH":"2022-04-23T14:00:01.000224","REF_FRAME":"TEME","TLE_LINE1":"1 51736U 22016Y   22113.58334491 -.00510158  00000-0 -11228-1 0  9996","INCLINATION":"53.2164","TIME_SYSTEM":"UTC","MEAN_MOTION":"15.45340506","RCS_SIZE":"LARGE","PERIOD":"93.183","ARG_OF_PERICENTER":"35.3839","MEAN_ANOMALY":"283.9370","MEAN_MOTION_DOT":"-0.00510158","ELEMENT_SET_NO":"999","FILE":"3412883","OBJECT_TYPE":"PAYLOAD","EPHEMERIS_TYPE":"0","PERIAPSIS":"429.165","COUNTRY_CODE":"US","APOAPSIS":"431.594","OBJECT_NAME":"STARLINK-3447","MEAN_ELEMENT_THEORY":"SGP4","TLE_LINE2":"2 51736  53.2164 199.4717 0001784  35.3839 283.9370 15.45340506  3653","ECCENTRICITY":"0.00017840","GP_ID":"201884284","DECAY_DATE":null,"RA_OF_ASC_NODE":"199.4717","BSTAR":"-0.01122800000000","CLASSIFICATION_TYPE":"U","MEAN_MOTION_DDOT":"0.0000000000000","CENTER_NAME":"EARTH","SITE":"AFETR","REV_AT_EPOCH":"365","SEMIMAJOR_AXIS":"6808.515","OBJECT_ID":"2022-016Y","LAUNCH_DATE":"2022-02-21","NORAD_CAT_ID":"51736"},{"MEAN_ELEMENT_THEORY":"SGP4","OBJECT_NAME":"STARLINK-3509","TLE_LINE2":"2 51737  53.2163 199.4723 0001489  45.9615 246.2441 15.44997952  3654","COUNTRY_CODE":"US","APOAPSIS":"432.400","ECCENTRICITY":"0.00014890","GP_ID":"201884201","MEAN_MOTION_DDOT":"0.0000000000000","DECAY_DATE":null,"RA_OF_ASC_NODE":"199.4723","CLASSIFICATION_TYPE":"U","BSTAR":"-0.01259400000000","SITE":"AFETR","CENTER_NAME":"EARTH","SEMIMAJOR_AXIS":"6809.521","REV_AT_EPOCH":"365","NORAD_CAT_ID":"51737","LAUNCH_DATE":"2022-02-21","OBJECT_ID":"2022-016Z","EPOCH":"2022-04-23T14:00:01.000224","TLE_LINE1":"1 51737U 22016Z   22113.58334491 -.00561728  00000-0 -12594-1 0  9993","REF_FRAME":"TEME","TIME_SYSTEM":"UTC","INCLINATION":"53.2163","MEAN_MOTION":"15.44997952","PERIOD":"93.204","RCS_SIZE":"LARGE","MEAN_MOTION_DOT":"-0.00561728","MEAN_ANOMALY":"246.2441","ARG_OF_PERICENTER":"45.9615","OBJECT_TYPE":"PAYLOAD","FILE":"3412883","ELEMENT_SET_NO":"999","EPHEMERIS_TYPE":"0","PERIAPSIS":"430.372"}];
